[{"OBJECT_NAME":"STARLINK-5368","OBJECT_ID":"2022-177W","EPOCH":"2026-03-09T22:00:01.999584","MEAN_MOTION":15.19174246,"ECCENTRICITY":0.00016966,"INCLINATION":43.0008,"RA_OF_ASC_NODE":130.9789,"ARG_OF_PERICENTER":280.9894,"MEAN_ANOMALY":38.8001,"EPHEMERIS_TYPE":0,"CLASSIFICATION_TYPE":"U","NORAD_CAT_ID":54840,"ELEMENT_SET_NO":999,"REV_AT_EPOCH":573,"BSTAR":0.047025493,"MEAN_MOTION_DOT":0.01090381,"MEAN_MOTION_DDOT":0},{"OBJECT_NAME":"CONNECTA IOT-12","OBJECT_ID":"2025-135AB","EPOCH":"2026-03-09T20:41:06.229824","MEAN_MOTION":15.2119731,"ECCENTRICITY":0.00020679,"INCLINATION":97.4617,"RA_OF_ASC_NODE":185.2328,"ARG_OF_PERICENTER":71.4086,"MEAN_ANOMALY":288.7374,"EPHEMERIS_TYPE":0,"CLASSIFICATION_TYPE":"U","NORAD_CAT_ID":64553,"ELEMENT_SET_NO":999,"REV_AT_EPOCH":3977,"BSTAR":0.0002684746,"MEAN_MOTION_DOT":5.919e-5,"MEAN_MOTION_DDOT":0}]
